[{"OBJECT_NAME":"KHALIFASAT","OBJECT_ID":"2018-084F","EPOCH":"2026-03-09T22:37:07.705056","MEAN_MOTION":15.0097364,"ECCENTRICITY":0.00062701,"INCLINATION":98.0864,"RA_OF_ASC_NODE":247.4233,"ARG_OF_PERICENTER":83.8573,"MEAN_ANOMALY":276.3364,"EPHEMERIS_TYPE":0,"CLASSIFICATION_TYPE":"U","NORAD_CAT_ID":43676,"ELEMENT_SET_NO":999,"REV_AT_EPOCH":40088,"BSTAR":0.00043724412,"MEAN_MOTION_DOT":5.516e-5,"MEAN_MOTION_DDOT":0},{"OBJECT_NAME":"STARLINK-5814","OBJECT_ID":"2023-028AN","EPOCH":"2026-03-09T19:22:08.249088","MEAN_MOTION":14.98320558,"ECCENTRICITY":0.00031689,"INCLINATION":69.9999,"RA_OF_ASC_NODE":224.0382,"ARG_OF_PERICENTER":271.9148,"MEAN_ANOMALY":88.1648,"EPHEMERIS_TYPE":0,"CLASSIFICATION_TYPE":"U","NORAD_CAT_ID":55777,"ELEMENT_SET_NO":999,"REV_AT_EPOCH":16655,"BSTAR":-0.00024330093,"MEAN_MOTION_DOT":-2.994e-5,"MEAN_MOTION_DDOT":0}]
